SL-3 R/B                
1 13403U 82079B   25353.90496539  .00004700  00000+0  19295-3 0  9999
2 13403  81.1477 287.2141 0027082  76.0935 284.3308 15.23665309365546
SL-14 R/B               
1 13553U 82092B   25353.15319023  .00000373  00000+0  39212-4 0  9993
2 13553  82.5677 216.7140 0019636 204.6884 274.1062 14.86561601316967
SL-3 R/B                
1 13819U 83010B   25353.57877753  .00010394  00000+0  22905-3 0  9998
2 13819  81.1051 100.2705 0016803 326.9328  33.0863 15.43632750345579
SL-3 R/B                
1 14208U 83075B   25353.95240615  .00007359  00000+0  20871-3 0  9992
2 14208  97.6099 350.6785 0023515 150.1868 210.0721 15.36271388317903
COSMOS 1536             
1 14699U 84013A   25353.50988935  .00004787  00000+0  20423-3 0  9999
2 14699  82.5439 187.4495 0013989 200.1382 159.9304 15.22591085260418
SL-14 R/B               
1 14820U 84027B   25353.89579933  .00000373  00000+0  39991-4 0  9994
2 14820  82.5416 319.8449 0016577 234.9319 125.0343 14.85881500235781
SL-8 R/B                
1 15483U 85006B   25353.94001638  .00000185  00000+0  70112-4 0  9997
2 15483  74.0463  47.8878 0019010 338.5049 194.7393 14.37724982142563
SL-12 R/B(2)            
1 15772U 85042D   25353.85143618  .00000129  00000+0  79351-4 0  9995
2 15772  71.1077 256.3961 0037436 251.0723 172.3317 14.21954013103044
SL-14 R/B               
1 15945U 85069B   25353.70292291  .00000407  00000+0  43208-4 0  9993
2 15945  82.5274 100.1571 0020347  97.1078 263.2453 14.86332017160958
SL-16 R/B               
1 16182U 85097B   25353.91149943  .00000030  00000+0  39095-4 0  9997
2 16182  71.0038 308.5043 0007168 359.1478  62.1945 14.16587710 75932
SL-14 R/B               
1 16496U 86006B   25353.90172286  .00000440  00000+0  44059-4 0  9992
2 16496  82.5267 334.8117 0076797 175.9805 184.2047 14.86680250137351
COSMOS 1743             
1 16719U 86034A   25353.87404231  .00021598  00000+0  35122-3 0  9992
2 16719  82.5339 157.1791 0004839 222.7186 137.3691 15.52528309167845
