CCSDS_OMM_VERS = 2.0
CREATION_DATE  = 
ORIGINATOR     = 

OBJECT_NAME    = SL-3 R/B
OBJECT_ID      = 1982-079B
CENTER_NAME    = EARTH
REF_FRAME      = TEME
TIME_SYSTEM    = UTC
MEAN_ELEMENT_THEORY = SGP/SGP4

EPOCH          = 2025-12-19T21:43:09.009696
MEAN_MOTION    = 15.23665309
ECCENTRICITY   = .00270823
INCLINATION    = 81.1477
RA_OF_ASC_NODE = 287.2141
ARG_OF_PERICENTER = 76.0935
MEAN_ANOMALY   = 284.3308

EPHEMERIS_TYPE = 0
CLASSIFICATION_TYPE = U
NORAD_CAT_ID   = 13403
ELEMENT_SET_NO = 999
REV_AT_EPOCH   = 36554
BSTAR          = .19295374E-3
MEAN_MOTION_DOT = .47E-4
MEAN_MOTION_DDOT = 0

CCSDS_OMM_VERS = 2.0
CREATION_DATE  = 
ORIGINATOR     = 

OBJECT_NAME    = SL-14 R/B
OBJECT_ID      = 1982-092B
CENTER_NAME    = EARTH
REF_FRAME      = TEME
TIME_SYSTEM    = UTC
MEAN_ELEMENT_THEORY = SGP/SGP4

EPOCH          = 2025-12-19T03:40:35.635872
MEAN_MOTION    = 14.86561601
ECCENTRICITY   = .00196368
INCLINATION    = 82.5677
RA_OF_ASC_NODE = 216.7140
ARG_OF_PERICENTER = 204.6884
MEAN_ANOMALY   = 274.1062

EPHEMERIS_TYPE = 0
CLASSIFICATION_TYPE = U
NORAD_CAT_ID   = 13553
ELEMENT_SET_NO = 999
REV_AT_EPOCH   = 31696
BSTAR          = .3921197E-4
MEAN_MOTION_DOT = .373E-5
MEAN_MOTION_DDOT = 0

CCSDS_OMM_VERS = 2.0
CREATION_DATE  = 
ORIGINATOR     = 

OBJECT_NAME    = SL-3 R/B
OBJECT_ID      = 1983-010B
CENTER_NAME    = EARTH
REF_FRAME      = TEME
TIME_SYSTEM    = UTC
MEAN_ELEMENT_THEORY = SGP/SGP4

EPOCH          = 2025-12-19T13:53:26.378592
MEAN_MOTION    = 15.43632750
ECCENTRICITY   = .0016803
INCLINATION    = 81.1051
RA_OF_ASC_NODE = 100.2705
ARG_OF_PERICENTER = 326.9328
MEAN_ANOMALY   = 33.0863

EPHEMERIS_TYPE = 0
CLASSIFICATION_TYPE = U
NORAD_CAT_ID   = 13819
ELEMENT_SET_NO = 999
REV_AT_EPOCH   = 34557
BSTAR          = .22905E-3
MEAN_MOTION_DOT = .10394E-3
MEAN_MOTION_DDOT = 0

CCSDS_OMM_VERS = 2.0
CREATION_DATE  = 
ORIGINATOR     = 

OBJECT_NAME    = SL-3 R/B
OBJECT_ID      = 1983-075B
CENTER_NAME    = EARTH
REF_FRAME      = TEME
TIME_SYSTEM    = UTC
MEAN_ELEMENT_THEORY = SGP/SGP4

EPOCH          = 2025-12-19T22:51:27.891360
MEAN_MOTION    = 15.36271388
ECCENTRICITY   = .00235151
INCLINATION    = 97.6099
RA_OF_ASC_NODE = 350.6785
ARG_OF_PERICENTER = 150.1868
MEAN_ANOMALY   = 210.0721

EPHEMERIS_TYPE = 0
CLASSIFICATION_TYPE = U
NORAD_CAT_ID   = 14208
ELEMENT_SET_NO = 999
REV_AT_EPOCH   = 31790
BSTAR          = .20870943E-3
MEAN_MOTION_DOT = .7359E-4
MEAN_MOTION_DDOT = 0

CCSDS_OMM_VERS = 2.0
CREATION_DATE  = 
ORIGINATOR     = 

OBJECT_NAME    = COSMOS 1536
OBJECT_ID      = 1984-013A
CENTER_NAME    = EARTH
REF_FRAME      = TEME
TIME_SYSTEM    = UTC
MEAN_ELEMENT_THEORY = SGP/SGP4

EPOCH          = 2025-12-19T12:14:14.439840
MEAN_MOTION    = 15.22591085
ECCENTRICITY   = .0013989
INCLINATION    = 82.5439
RA_OF_ASC_NODE = 187.4495
ARG_OF_PERICENTER = 200.1382
MEAN_ANOMALY   = 159.9304

EPHEMERIS_TYPE = 0
CLASSIFICATION_TYPE = U
NORAD_CAT_ID   = 14699
ELEMENT_SET_NO = 999
REV_AT_EPOCH   = 26041
BSTAR          = .20423E-3
MEAN_MOTION_DOT = .4787E-4
MEAN_MOTION_DDOT = 0

CCSDS_OMM_VERS = 2.0
CREATION_DATE  = 
ORIGINATOR     = 

OBJECT_NAME    = SL-14 R/B
OBJECT_ID      = 1984-027B
CENTER_NAME    = EARTH
REF_FRAME      = TEME
TIME_SYSTEM    = UTC
MEAN_ELEMENT_THEORY = SGP/SGP4

EPOCH          = 2025-12-19T21:29:57.062112
MEAN_MOTION    = 14.85881500
ECCENTRICITY   = .00165773
INCLINATION    = 82.5416
RA_OF_ASC_NODE = 319.8449
ARG_OF_PERICENTER = 234.9319
MEAN_ANOMALY   = 125.0343

EPHEMERIS_TYPE = 0
CLASSIFICATION_TYPE = U
NORAD_CAT_ID   = 14820
ELEMENT_SET_NO = 999
REV_AT_EPOCH   = 23578
BSTAR          = .39990672E-4
MEAN_MOTION_DOT = .373E-5
MEAN_MOTION_DDOT = 0

CCSDS_OMM_VERS = 2.0
CREATION_DATE  = 
ORIGINATOR     = 

OBJECT_NAME    = SL-8 R/B
OBJECT_ID      = 1985-006B
CENTER_NAME    = EARTH
REF_FRAME      = TEME
TIME_SYSTEM    = UTC
MEAN_ELEMENT_THEORY = SGP/SGP4

EPOCH          = 2025-12-19T22:33:37.415232
MEAN_MOTION    = 14.37724982
ECCENTRICITY   = .00190105
INCLINATION    = 74.0463
RA_OF_ASC_NODE = 47.8878
ARG_OF_PERICENTER = 338.5049
MEAN_ANOMALY   = 194.7393

EPHEMERIS_TYPE = 0
CLASSIFICATION_TYPE = U
NORAD_CAT_ID   = 15483
ELEMENT_SET_NO = 999
REV_AT_EPOCH   = 14256
BSTAR          = .70112086E-4
MEAN_MOTION_DOT = .185E-5
MEAN_MOTION_DDOT = 0

CCSDS_OMM_VERS = 2.0
CREATION_DATE  = 
ORIGINATOR     = 

OBJECT_NAME    = SL-12 R/B(2)
OBJECT_ID      = 1985-042D
CENTER_NAME    = EARTH
REF_FRAME      = TEME
TIME_SYSTEM    = UTC
MEAN_ELEMENT_THEORY = SGP/SGP4

EPOCH          = 2025-12-19T20:26:04.085952
MEAN_MOTION    = 14.21954013
ECCENTRICITY   = .0037436
INCLINATION    = 71.1077
RA_OF_ASC_NODE = 256.3961
ARG_OF_PERICENTER = 251.0723
MEAN_ANOMALY   = 172.3317

EPHEMERIS_TYPE = 0
CLASSIFICATION_TYPE = U
NORAD_CAT_ID   = 15772
ELEMENT_SET_NO = 999
REV_AT_EPOCH   = 10304
BSTAR          = .79350851E-4
MEAN_MOTION_DOT = .129E-5
MEAN_MOTION_DDOT = 0

CCSDS_OMM_VERS = 2.0
CREATION_DATE  = 
ORIGINATOR     = 

OBJECT_NAME    = SL-14 R/B
OBJECT_ID      = 1985-069B
CENTER_NAME    = EARTH
REF_FRAME      = TEME
TIME_SYSTEM    = UTC
MEAN_ELEMENT_THEORY = SGP/SGP4

EPOCH          = 2025-12-19T16:52:12.539424
MEAN_MOTION    = 14.86332017
ECCENTRICITY   = .00203472
INCLINATION    = 82.5274
RA_OF_ASC_NODE = 100.1571
ARG_OF_PERICENTER = 97.1078
MEAN_ANOMALY   = 263.2453

EPHEMERIS_TYPE = 0
CLASSIFICATION_TYPE = U
NORAD_CAT_ID   = 15945
ELEMENT_SET_NO = 999
REV_AT_EPOCH   = 16095
BSTAR          = .43207794E-4
MEAN_MOTION_DOT = .407E-5
MEAN_MOTION_DDOT = 0

CCSDS_OMM_VERS = 2.0
CREATION_DATE  = 
ORIGINATOR     = 

OBJECT_NAME    = SL-16 R/B
OBJECT_ID      = 1985-097B
CENTER_NAME    = EARTH
REF_FRAME      = TEME
TIME_SYSTEM    = UTC
MEAN_ELEMENT_THEORY = SGP/SGP4

EPOCH          = 2025-12-19T21:52:33.550752
MEAN_MOTION    = 14.16587710
ECCENTRICITY   = .00071681
INCLINATION    = 71.0038
RA_OF_ASC_NODE = 308.5043
ARG_OF_PERICENTER = 359.1478
MEAN_ANOMALY   = 62.1945

EPHEMERIS_TYPE = 0
CLASSIFICATION_TYPE = U
NORAD_CAT_ID   = 16182
ELEMENT_SET_NO = 999
REV_AT_EPOCH   = 7593
BSTAR          = .39095191E-4
MEAN_MOTION_DOT = .3E-6
MEAN_MOTION_DDOT = 0

CCSDS_OMM_VERS = 2.0
CREATION_DATE  = 
ORIGINATOR     = 

OBJECT_NAME    = SL-14 R/B
OBJECT_ID      = 1986-006B
CENTER_NAME    = EARTH
REF_FRAME      = TEME
TIME_SYSTEM    = UTC
MEAN_ELEMENT_THEORY = SGP/SGP4

EPOCH          = 2025-12-19T21:38:28.855104
MEAN_MOTION    = 14.86680250
ECCENTRICITY   = .0076797
INCLINATION    = 82.5267
RA_OF_ASC_NODE = 334.8117
ARG_OF_PERICENTER = 175.9805
MEAN_ANOMALY   = 184.2047

EPHEMERIS_TYPE = 0
CLASSIFICATION_TYPE = U
NORAD_CAT_ID   = 16496
ELEMENT_SET_NO = 999
REV_AT_EPOCH   = 13735
BSTAR          = .44059474E-4
MEAN_MOTION_DOT = .44E-5
MEAN_MOTION_DDOT = 0

CCSDS_OMM_VERS = 2.0
CREATION_DATE  = 
ORIGINATOR     = 

OBJECT_NAME    = COSMOS 1743
OBJECT_ID      = 1986-034A
CENTER_NAME    = EARTH
REF_FRAME      = TEME
TIME_SYSTEM    = UTC
MEAN_ELEMENT_THEORY = SGP/SGP4

EPOCH          = 2025-12-19T20:58:37.255584
MEAN_MOTION    = 15.52528309
ECCENTRICITY   = .00048397
INCLINATION    = 82.5339
RA_OF_ASC_NODE = 157.1791
ARG_OF_PERICENTER = 222.7186
MEAN_ANOMALY   = 137.3691

EPHEMERIS_TYPE = 0
CLASSIFICATION_TYPE = U
NORAD_CAT_ID   = 16719
ELEMENT_SET_NO = 999
REV_AT_EPOCH   = 16784
BSTAR          = .35122232E-3
MEAN_MOTION_DOT = .21598E-3
MEAN_MOTION_DDOT = 0

